QZS-1R                  
1 49336U 21096A   24168.67895785 -.00000254  00000+0  00000+0 0  9999
2 49336  35.9435  90.5371 0756316 271.5165 281.9945  1.00259837  9682
